[{"OBJECT_NAME":"UNKNOWN","OBJECT_ID":"","EPOCH":"2026-03-06T09:07:53.971392","MEAN_MOTION":13.78981777,"ECCENTRICITY":0.0119895,"INCLINATION":66.7972,"RA_OF_ASC_NODE":211.776,"ARG_OF_PERICENTER":269.5515,"MEAN_ANOMALY":89.1819,"EPHEMERIS_TYPE":0,"CLASSIFICATION_TYPE":"U","NORAD_CAT_ID":81359,"ELEMENT_SET_NO":999,"REV_AT_EPOCH":61701,"BSTAR":0.0011015,"MEAN_MOTION_DOT":1.113e-5,"MEAN_MOTION_DDOT":0},{"OBJECT_NAME":"UNKNOWN","OBJECT_ID":"","EPOCH":"2026-03-02T22:18:46.060128","MEAN_MOTION":13.45377095,"ECCENTRICITY":0.0712435,"INCLINATION":65.8803,"RA_OF_ASC_NODE":242.2206,"ARG_OF_PERICENTER":42.5375,"MEAN_ANOMALY":322.866,"EPHEMERIS_TYPE":0,"CLASSIFICATION_TYPE":"U","NORAD_CAT_ID":81366,"ELEMENT_SET_NO":999,"REV_AT_EPOCH":7674,"BSTAR":0.00032297,"MEAN_MOTION_DOT":8.39e-6,"MEAN_MOTION_DDOT":0},{"OBJECT_NAME":"UNKNOWN","OBJECT_ID":"","EPOCH":"2026-03-06T17:31:58.135008","MEAN_MOTION":14.7114374,"ECCENTRICITY":0.0070129,"INCLINATION":98.8101,"RA_OF_ASC_NODE":173.9349,"ARG_OF_PERICENTER":103.0534,"MEAN_ANOMALY":257.8511,"EPHEMERIS_TYPE":0,"CLASSIFICATION_TYPE":"U","NORAD_CAT_ID":81371,"ELEMENT_SET_NO":999,"REV_AT_EPOCH":65418,"BSTAR":0.0008672,"MEAN_MOTION_DOT":5.488e-5,"MEAN_MOTION_DDOT":0},{"OBJECT_NAME":"UNKNOWN","OBJECT_ID":"","EPOCH":"2026-03-04T17:54:07.486272","MEAN_MOTION":13.82274067,"ECCENTRICITY":0.0039118,"INCLINATION":100.4046,"RA_OF_ASC_NODE":65.3082,"ARG_OF_PERICENTER":183.0651,"MEAN_ANOMALY":355.2593,"EPHEMERIS_TYPE":0,"CLASSIFICATION_TYPE":"U","NORAD_CAT_ID":81392,"ELEMENT_SET_NO":999,"REV_AT_EPOCH":61350,"BSTAR":0.0034598,"MEAN_MOTION_DOT":3.705e-5,"MEAN_MOTION_DDOT":0},{"OBJECT_NAME":"UNKNOWN","OBJECT_ID":"","EPOCH":"2026-03-03T22:47:31.364448","MEAN_MOTION":13.89145588,"ECCENTRICITY":0.0157918,"INCLINATION":99.4597,"RA_OF_ASC_NODE":117.4079,"ARG_OF_PERICENTER":7.0973,"MEAN_ANOMALY":353.2369,"EPHEMERIS_TYPE":0,"CLASSIFICATION_TYPE":"U","NORAD_CAT_ID":81405,"ELEMENT_SET_NO":999,"REV_AT_EPOCH":57307,"BSTAR":0.0012527,"MEAN_MOTION_DOT":1.635e-5,"MEAN_MOTION_DDOT":0},{"OBJECT_NAME":"UNKNOWN","OBJECT_ID":"","EPOCH":"2026-03-07T03:00:08.183808","MEAN_MOTION":14.07094742,"ECCENTRICITY":0.0084014,"INCLINATION":98.7423,"RA_OF_ASC_NODE":310.5321,"ARG_OF_PERICENTER":159.9267,"MEAN_ANOMALY":200.5239,"EPHEMERIS_TYPE":0,"CLASSIFICATION_TYPE":"U","NORAD_CAT_ID":81427,"ELEMENT_SET_NO":999,"REV_AT_EPOCH":56363,"BSTAR":0.0003419,"MEAN_MOTION_DOT":5.48e-6,"MEAN_MOTION_DDOT":0},{"OBJECT_NAME":"UNKNOWN","OBJECT_ID":"","EPOCH":"2026-03-07T08:52:43.026816","MEAN_MOTION":13.55200747,"ECCENTRICITY":0.0048247,"INCLINATION":100.3261,"RA_OF_ASC_NODE":306.7837,"ARG_OF_PERICENTER":234.3821,"MEAN_ANOMALY":125.2815,"EPHEMERIS_TYPE":0,"CLASSIFICATION_TYPE":"U","NORAD_CAT_ID":81438,"ELEMENT_SET_NO":999,"REV_AT_EPOCH":60340,"BSTAR":0.0041281,"MEAN_MOTION_DOT":2.825e-5,"MEAN_MOTION_DDOT":0},{"OBJECT_NAME":"UNKNOWN","OBJECT_ID":"","EPOCH":"2026-03-07T03:59:02.984928","MEAN_MOTION":12.62653678,"ECCENTRICITY":0.0596036,"INCLINATION":67.1624,"RA_OF_ASC_NODE":338.5521,"ARG_OF_PERICENTER":151.1781,"MEAN_ANOMALY":212.3584,"EPHEMERIS_TYPE":0,"CLASSIFICATION_TYPE":"U","NORAD_CAT_ID":81439,"ELEMENT_SET_NO":999,"REV_AT_EPOCH":27255,"BSTAR":0.0015785,"MEAN_MOTION_DOT":5.13e-6,"MEAN_MOTION_DDOT":0},{"OBJECT_NAME":"UNKNOWN","OBJECT_ID":"","EPOCH":"2026-03-06T12:24:37.619712","MEAN_MOTION":15.17099882,"ECCENTRICITY":0.002332,"INCLINATION":66.7879,"RA_OF_ASC_NODE":104.8177,"ARG_OF_PERICENTER":18.461,"MEAN_ANOMALY":341.7374,"EPHEMERIS_TYPE":0,"CLASSIFICATION_TYPE":"U","NORAD_CAT_ID":81449,"ELEMENT_SET_NO":999,"REV_AT_EPOCH":64618,"BSTAR":0.0063799,"MEAN_MOTION_DOT":0.00129882,"MEAN_MOTION_DDOT":0},{"OBJECT_NAME":"UNKNOWN","OBJECT_ID":"","EPOCH":"2026-03-07T05:42:39.788928","MEAN_MOTION":14.29031937,"ECCENTRICITY":0.0145558,"INCLINATION":98.9512,"RA_OF_ASC_NODE":345.3563,"ARG_OF_PERICENTER":112.5481,"MEAN_ANOMALY":40.4041,"EPHEMERIS_TYPE":0,"CLASSIFICATION_TYPE":"U","NORAD_CAT_ID":81478,"ELEMENT_SET_NO":999,"REV_AT_EPOCH":63500,"BSTAR":0.0016836,"MEAN_MOTION_DOT":4.732e-5,"MEAN_MOTION_DDOT":0},{"OBJECT_NAME":"UNKNOWN","OBJECT_ID":"","EPOCH":"2026-03-07T03:29:48.333120","MEAN_MOTION":13.56551508,"ECCENTRICITY":0.0044652,"INCLINATION":99.9933,"RA_OF_ASC_NODE":305.0388,"ARG_OF_PERICENTER":149.5336,"MEAN_ANOMALY":3.6043,"EPHEMERIS_TYPE":0,"CLASSIFICATION_TYPE":"U","NORAD_CAT_ID":81488,"ELEMENT_SET_NO":999,"REV_AT_EPOCH":60807,"BSTAR":0.00037231,"MEAN_MOTION_DOT":2.18e-6,"MEAN_MOTION_DDOT":0},{"OBJECT_NAME":"UNKNOWN","OBJECT_ID":"","EPOCH":"2026-03-01T23:31:12.157248","MEAN_MOTION":13.84808267,"ECCENTRICITY":0.0027031,"INCLINATION":100.2999,"RA_OF_ASC_NODE":328.2356,"ARG_OF_PERICENTER":170.175,"MEAN_ANOMALY":255.6004,"EPHEMERIS_TYPE":0,"CLASSIFICATION_TYPE":"U","NORAD_CAT_ID":81497,"ELEMENT_SET_NO":999,"REV_AT_EPOCH":22726,"BSTAR":0.0033385,"MEAN_MOTION_DOT":3.724e-5,"MEAN_MOTION_DDOT":0},{"OBJECT_NAME":"UNKNOWN","OBJECT_ID":"","EPOCH":"2026-03-06T09:44:50.410464","MEAN_MOTION":14.47678161,"ECCENTRICITY":0.0002728,"INCLINATION":74.0478,"RA_OF_ASC_NODE":64.7347,"ARG_OF_PERICENTER":235.8602,"MEAN_ANOMALY":124.2298,"EPHEMERIS_TYPE":0,"CLASSIFICATION_TYPE":"U","NORAD_CAT_ID":81499,"ELEMENT_SET_NO":999,"REV_AT_EPOCH":49452,"BSTAR":0.0011323,"MEAN_MOTION_DOT":4.153e-5,"MEAN_MOTION_DDOT":0},{"OBJECT_NAME":"UNKNOWN","OBJECT_ID":"","EPOCH":"2026-03-07T10:43:48.841248","MEAN_MOTION":14.13642361,"ECCENTRICITY":0.0233561,"INCLINATION":98.1901,"RA_OF_ASC_NODE":146.7157,"ARG_OF_PERICENTER":263.3265,"MEAN_ANOMALY":94.1279,"EPHEMERIS_TYPE":0,"CLASSIFICATION_TYPE":"U","NORAD_CAT_ID":81535,"ELEMENT_SET_NO":999,"REV_AT_EPOCH":39936,"BSTAR":0.00057325,"MEAN_MOTION_DOT":1.361e-5,"MEAN_MOTION_DDOT":0},{"OBJECT_NAME":"UNKNOWN","OBJECT_ID":"","EPOCH":"2026-03-05T08:55:09.905952","MEAN_MOTION":12.55976218,"ECCENTRICITY":0.0018378,"INCLINATION":101.9676,"RA_OF_ASC_NODE":291.4387,"ARG_OF_PERICENTER":119.6505,"MEAN_ANOMALY":62.2506,"EPHEMERIS_TYPE":0,"CLASSIFICATION_TYPE":"U","NORAD_CAT_ID":81536,"ELEMENT_SET_NO":999,"REV_AT_EPOCH":56218,"BSTAR":0.0044777,"MEAN_MOTION_DOT":6.91e-6,"MEAN_MOTION_DDOT":0},{"OBJECT_NAME":"UNKNOWN","OBJECT_ID":"","EPOCH":"2026-03-02T08:52:38.100288","MEAN_MOTION":14.07156543,"ECCENTRICITY":0.0075868,"INCLINATION":71.0398,"RA_OF_ASC_NODE":304.5004,"ARG_OF_PERICENTER":31.01,"MEAN_ANOMALY":329.5464,"EPHEMERIS_TYPE":0,"CLASSIFICATION_TYPE":"U","NORAD_CAT_ID":81537,"ELEMENT_SET_NO":999,"REV_AT_EPOCH":63166,"BSTAR":0.00019949,"MEAN_MOTION_DOT":2.97e-6,"MEAN_MOTION_DDOT":0},{"OBJECT_NAME":"UNKNOWN","OBJECT_ID":"","EPOCH":"2026-03-07T06:05:43.686240","MEAN_MOTION":13.18325114,"ECCENTRICITY":0.0256566,"INCLINATION":99.0679,"RA_OF_ASC_NODE":346.3232,"ARG_OF_PERICENTER":174.9772,"MEAN_ANOMALY":185.4012,"EPHEMERIS_TYPE":0,"CLASSIFICATION_TYPE":"U","NORAD_CAT_ID":81552,"ELEMENT_SET_NO":999,"REV_AT_EPOCH":59038,"BSTAR":0.0019458,"MEAN_MOTION_DOT":8.7e-6,"MEAN_MOTION_DDOT":0}]
